NORAD_CAT_ID,OBJECT_NAME,OBJECT_TYPE,EPOCH,MEAN_MOTION,ECCENTRICITY,INCLINATION,RA_OF_ASC_NODE,ARG_OF_PERICENTER,MEAN_ANOMALY,BSTAR,MEAN_MOTION_DOT,MEAN_MOTION_DDOT,TLE_LINE0,TLE_LINE1,TLE_LINE2,SEMIMAJOR_AXIS,PERIOD,APOGEE,PERIGEE,DECAYED
52706.0,STARLINK-3970,PAYLOAD,2023-10-06 18:44:30,15.08834761,0.000151,53.2145,146.6285,99.5203,260.596,5.8441e-05,6.42e-06,0.0,0 STARLINK-3970,1 52706U 22053BC  23279.78091386  .00000642  00000-0  58441-4 0  9995,2 52706  53.2145 146.6285 0001510  99.5203 260.5960 15.08834761 77295,6917.896,95.438,540.806,538.717,0.0
52706.0,STARLINK-3970,PAYLOAD,2023-10-06 21:55:17,15.08836172,0.0001356,53.2146,146.0357,88.2175,271.8973,0.00014481,2.017e-05,0.0,0 STARLINK-3970,1 52706U 22053BC  23279.91339482  .00002017  00000-0  14481-3 0  9995,2 52706  53.2146 146.0357 0001356  88.2175 271.8973 15.08836172 77748,6917.892,95.438,540.695,538.819,0.0
52706.0,STARLINK-3970,PAYLOAD,2023-10-07 01:06:03,15.08838224,0.0001388,53.2149,145.4406,88.1268,271.9883,0.00022749,3.334e-05,0.0,0 STARLINK-3970,1 52706U 22053BC  23280.04587513  .00003334  00000-0  22749-3 0  9990,2 52706  53.2149 145.4406 0001388  88.1268 271.9883 15.08838224 77769,6917.886,95.438,540.711,538.791,0.0
52706.0,STARLINK-3970,PAYLOAD,2023-10-07 20:10:41,15.08843272,0.0001501,53.2155,141.8716,89.1039,271.0125,0.00037067,5.617e-05,0.0,0 STARLINK-3970,1 52706U 22053BC  23280.84075716  .00005617  00000-0  37067-3 0  9990,2 52706  53.2155 141.8716 0001501  89.1039 271.0125 15.08843272 77886,6917.87,95.437,540.774,538.697,0.0
52706.0,STARLINK-3970,PAYLOAD,2023-10-08 00:56:50,15.08850455,0.0001512,53.216,140.9791,89.5774,270.5391,0.00050155,7.705e-05,0.0,0 STARLINK-3970,1 52706U 22053BC  23281.03947479  .00007705  00000-0  50155-3 0  9999,2 52706  53.2160 140.9791 0001512  89.5774 270.5391 15.08850455 77483,6917.848,95.437,540.759,538.667,0.0
52706.0,STARLINK-3970,PAYLOAD,2023-10-08 07:18:23,15.08850647,0.0001487,53.2155,139.7891,87.9468,272.1694,0.00043753,6.684e-05,0.0,0 STARLINK-3970,1 52706U 22053BC  23281.30443400  .00006684  00000-0  43753-3 0  9995,2 52706  53.2155 139.7891 0001487  87.9468 272.1694 15.08850647 77956,6917.848,95.437,540.742,538.684,0.0
52706.0,STARLINK-3970,PAYLOAD,2023-10-08 18:26:05,15.08845172,0.0001627,53.216,137.7082,93.3802,266.7376,0.00010075,1.316e-05,0.0,0 STARLINK-3970,1 52706U 22053BC  23281.76811375  .00001316  00000-0  10075-3 0  9993,2 52706  53.2160 137.7082 0001627  93.3802 266.7376 15.08845172 77594,6917.865,95.437,540.855,538.604,0.0
52706.0,STARLINK-3970,PAYLOAD,2023-10-08 21:36:51,15.08847976,0.0001397,53.2148,137.116,88.4849,271.6303,0.00021043,3.063e-05,0.0,0 STARLINK-3970,1 52706U 22053BC  23281.90059248  .00003063  00000-0  21043-3 0  9990,2 52706  53.2148 137.1160 0001397  88.4849 271.6303 15.08847976 78041,6917.856,95.437,540.687,538.755,0.0
52706.0,STARLINK-3970,PAYLOAD,2023-10-09 07:09:10,15.08839687,0.0001708,53.2164,135.3291,84.3307,275.788,2.8072e-05,1.59e-06,0.0,0 STARLINK-3970,1 52706U 22053BC  23282.29803580  .00000159  00000-0  28072-4 0  9992,2 52706  53.2164 135.3291 0001708  84.3307 275.7880 15.08839687 78106,6917.881,95.438,540.928,538.565,0.0
52706.0,STARLINK-3970,PAYLOAD,2023-10-09 18:16:52,15.08839274,0.0001575,53.2165,133.2472,88.0271,272.0902,-5.7405e-05,-1.201e-05,0.0,0 STARLINK-3970,1 52706U 22053BC  23282.76171495 -.00001201  00000-0 -57405-4 0  9990,2 52706  53.2165 133.2472 0001575  88.0271 272.0902 15.08839274 77744,6917.883,95.438,540.837,538.658,0.0
52706.0,STARLINK-3970,PAYLOAD,2023-10-09 21:27:38,15.08842521,0.0001564,53.216,132.6552,104.8843,255.2322,2.7383e-05,1.48e-06,0.0,0 STARLINK-3970,1 52706U 22053BC  23282.89419414  .00000148  00000-0  27383-4 0  9999,2 52706  53.2160 132.6552 0001564 104.8843 255.2322 15.08842521 78199,6917.873,95.437,540.82,538.656,0.0
52706.0,STARLINK-3970,PAYLOAD,2023-10-10 13:21:29,15.08840567,0.000168,53.2152,129.6777,93.2002,266.9183,3.3133e-05,2.39e-06,0.0,0 STARLINK-3970,1 52706U 22053BC  23283.55659516  .00000239  00000-0  33133-4 0  9993,2 52706  53.2152 129.6777 0001680  93.2002 266.9183 15.08840567 78295,6917.879,95.438,540.906,538.581,0.0
52706.0,STARLINK-3970,PAYLOAD,2023-10-10 21:18:25,15.0884431,0.0001385,53.2153,128.1936,101.5483,258.5664,0.00014897,2.084e-05,0.0,0 STARLINK-3970,1 52706U 22053BC  23283.88779346  .00002084  00000-0  14897-3 0  9998,2 52706  53.2153 128.1936 0001385 101.5483 258.5664 15.08844310 78342,6917.867,95.437,540.69,538.774,0.0
52706.0,STARLINK-3970,PAYLOAD,2023-10-10 22:53:48,15.08846029,0.0001299,53.2143,127.894,95.6566,264.4574,0.00017383,2.48e-05,0.0,0 STARLINK-3970,1 52706U 22053BC  23283.95403254  .00002480  00000-0  17383-3 0  9991,2 52706  53.2143 127.8940 0001299  95.6566 264.4574 15.08846029 77929,6917.862,95.437,540.626,538.828,0.0
52706.0,STARLINK-3970,PAYLOAD,2023-10-11 06:50:44,15.08838656,0.0001305,53.2148,126.4102,89.5219,270.5923,5.9755e-05,6.63e-06,0.0,0 STARLINK-3970,1 52706U 22053BC  23284.28523652  .00000663  00000-0  59755-4 0  9994,2 52706  53.2148 126.4102 0001305  89.5219 270.5923 15.08838656 77972,6917.884,95.438,540.652,538.847,0.0
52706.0,STARLINK-3970,PAYLOAD,2023-10-11 13:12:17,15.08833078,0.0001438,53.214,125.2205,89.4256,270.6901,4.9235e-05,4.96e-06,0.0,0 STARLINK-3970,1 52706U 22053BC  23284.55020062  .00000496  00000-0  49235-4 0  9997,2 52706  53.2140 125.2205 0001438  89.4256 270.6901 15.08833078 78445,6917.902,95.438,540.761,538.772,0.0
52706.0,STARLINK-3970,PAYLOAD,2023-10-11 19:33:50,15.08825146,0.0001306,53.2148,124.029,90.7575,269.3567,-1.4429e-05,-5.17e-06,0.0,0 STARLINK-3970,1 52706U 22053BC  23284.81516781 -.00000517  00000-0 -14429-4 0  9997,2 52706  53.2148 124.0290 0001306  90.7575 269.3567 15.08825146 78054,6917.926,95.438,540.694,538.887,0.0
52706.0,STARLINK-3970,PAYLOAD,2023-10-11 22:44:37,15.08822418,0.0001201,53.2161,123.4352,95.1455,264.9674,-6.8999e-05,-1.385e-05,0.0,0 STARLINK-3970,1 52706U 22053BC  23284.94765721 -.00001385  00000-0 -68999-4 0  9996,2 52706  53.2161 123.4352 0001201  95.1455 264.9674 15.08822418 78072,6917.934,95.439,540.63,538.968,0.0
52706.0,STARLINK-3970,PAYLOAD,2023-10-12 13:03:05,15.08825951,0.0001214,53.2169,120.7595,95.9964,264.1167,3.7955e-06,-2.27e-06,0.0,0 STARLINK-3970,1 52706U 22053BC  23285.54381830 -.00000227  00000-0  37955-5 0  9990,2 52706  53.2169 120.7595 0001214  95.9964 264.1167 15.08825951 78597,6917.923,95.438,540.628,538.948,0.0
52706.0,STARLINK-3970,PAYLOAD,2023-10-12 19:24:37,15.08837216,0.0001219,53.216,119.57,85.4277,274.6855,4.6064e-05,4.45e-06,0.0,0 STARLINK-3970,1 52706U 22053BC  23285.80877188  .00000445  00000-0  46064-4 0  9996,2 52706  53.2160 119.5700 0001219  85.4277 274.6855 15.08837216 78203,6917.889,95.438,540.597,538.911,0.0
52706.0,STARLINK-3970,PAYLOAD,2023-10-13 06:32:19,15.08849213,0.0001224,53.2167,117.4882,99.4952,260.6178,0.00010371,1.363e-05,0.0,0 STARLINK-3970,1 52706U 22053BC  23286.27244258  .00001363  00000-0  10371-3 0  9995,2 52706  53.2167 117.4882 0001224  99.4952 260.6178 15.08849213 78279,6917.852,95.437,540.564,538.87,0.0
52706.0,STARLINK-3970,PAYLOAD,2023-10-13 19:15:24,15.08859622,0.0001207,53.2149,115.1093,91.0371,269.0759,0.00064915,0.00010064,0.0,0 STARLINK-3970,1 52706U 22053BC  23286.80236309  .00010064  00000-0  64915-3 0  9993,2 52706  53.2149 115.1093 0001207  91.0371 269.0759 15.08859622 78781,6917.82,95.436,540.52,538.85,0.0
52706.0,STARLINK-3970,PAYLOAD,2023-10-13 22:26:10,15.08868993,0.0001224,53.2147,114.5143,90.8985,269.2148,0.00078374,0.00012217,0.0,0 STARLINK-3970,1 52706U 22053BC  23286.93483954  .00012217  00000-0  78374-3 0  9993,2 52706  53.2147 114.5143 0001224  90.8985 269.2148 15.08868993 78375,6917.792,95.436,540.504,538.81,0.0
52706.0,STARLINK-3970,PAYLOAD,2023-10-14 12:44:38,15.08855426,0.0001494,53.2145,111.8374,83.9095,276.2067,0.00019985,2.895e-05,0.0,0 STARLINK-3970,1 52706U 22053BC  23287.53100257  .00002895  00000-0  19985-3 0  9996,2 52706  53.2145 111.8374 0001494  83.9095 276.2067 15.08855426 78895,6917.833,95.437,540.732,538.665,0.0
52706.0,STARLINK-3970,PAYLOAD,2023-10-14 19:06:10,15.08854175,0.0001447,53.2149,110.6474,91.0712,269.0446,0.00018806,2.707e-05,0.0,0 STARLINK-3970,1 52706U 22053BC  23287.79595907  .00002707  00000-0  18806-3 0  9997,2 52706  53.2149 110.6474 0001447  91.0712 269.0446 15.08854175 78500,6917.837,95.437,540.703,538.701,0.0
52706.0,STARLINK-3970,PAYLOAD,2023-10-15 12:35:25,15.08839118,0.0001606,53.2147,107.3754,92.95,267.1676,0.00020948,3.047e-05,0.0,0 STARLINK-3970,1 52706U 22053BC  23288.52460216  .00003047  00000-0  20948-3 0  9991,2 52706  53.2147 107.3754 0001606  92.9500 267.1676 15.08839118 79048,6917.883,95.438,540.859,538.637,0.0
52706.0,STARLINK-3970,PAYLOAD,2023-10-15 18:56:57,15.08847358,0.0001454,53.2149,106.1872,91.6867,268.4291,-1.6624e-05,-5.53e-06,0.0,0 STARLINK-3970,1 52706U 22053BC  23288.78955873 -.00000553  00000-0 -16624-4 0  9995,2 52706  53.2149 106.1872 0001454  91.6867 268.4291 15.08847358 78659,6917.858,95.437,540.729,538.717,0.0
52706.0,STARLINK-3970,PAYLOAD,2023-10-16 12:26:12,15.08840434,0.0001504,53.2147,102.9159,92.3564,267.76,0.00013595,1.876e-05,0.0,0 STARLINK-3970,1 52706U 22053BC  23289.51820223  .00001876  00000-0  13595-3 0  9997,2 52706  53.2147 102.9159 0001504  92.3564 267.7600 15.08840434 78763,6917.879,95.438,540.785,538.704,0.0
52706.0,STARLINK-3970,PAYLOAD,2023-10-16 17:12:21,15.08853938,0.0001475,53.2152,102.0246,92.5489,267.5672,-0.00013967,-2.511e-05,0.0,0 STARLINK-3970,1 52706U 22053BC  23289.71691427 -.00002511  00000-0 -13967-3 0  9993,2 52706  53.2152 102.0246 0001475  92.5489 267.5672 15.08853938 78795,6917.838,95.437,540.723,538.682,0.0
52706.0,STARLINK-3970,PAYLOAD,2023-10-17 20:13:55,15.08839986,0.0001544,53.216,96.9694,87.3618,272.7551,5.5258e-05,5.92e-06,0.0,0 STARLINK-3970,1 52706U 22053BC  23290.84300153  .00000592  00000-0  55258-4 0  9997,2 52706  53.2160  96.9694 0001544  87.3618 272.7551 15.08839986 78965,6917.88,95.438,540.814,538.677,0.0
